Region,Winery Name,Street Address,City,State,Phone,Website,,,,lat,lon
Heart of Appalachia,MountainRose Vineyards,10439 N. Reservoir Rd.,Wise,VA,276-328-2013,mountainrosevineyard.com,,,,36.97064250951611,-82.52447474
Heart of Appalachia,Vincent's Vineyard,2313 E. Main St.,Lebanon,VA,276-219-4522,vincentsvineyard.com,,,,36.9107739,-82.0419435
Hampton Roads,Breezy Hill Meadworks,15981 Breezy Hill Ln.,Smithfield,VA,757-214-7494,breezyhillmeadworks.com,,,,36.9291898,-76.60322135
Hampton Roads,Gauthier Vineyard,5000 Farmers Dr.,Barhamsville,VA,757-350-3125,gauthiervineyard.com,,,,37.468842,-76.832807
Hampton Roads,Hampton Roads Winery,6074 New Design Rd.,Elberon,VA,757-899-0203,hamptonroadswinery.com,,,,37.07157925,-76.87516534
Hampton Roads,Jolene Family Winery,2750 Pocahontas Tr.,Quinton,VA,804-557-5316,jolenefamilywinery.com,,,,37.504771,-77.180969
Hampton Roads,Mermaid Winery,101 Granby St.,Norfolk,VA,757-233-4155,mermaidwinery.com,,,,36.8465135,-76.2924117
Hampton Roads,New Kent Winery,8400 Old Church Rd.,New Kent,VA,804-922-7414,newkentwinery.com,,,,37.524963,-77.075543
Hampton Roads,Saudé Creek Vineyards,16230 Cooks Mill Rd.,Lanexa,VA,804-966-5896,saudecreek.com,,,,37.4237573,-76.9010753
Hampton Roads,Sly Clyde Ciderworks,207 E. Mellen St.,Hampton,VA,,slyclyde.com,,,,37.016485,-76.3194668
Hampton Roads,Smithfield Winery,117 N. Church St.,Smithfield,VA,757-797-9463,smithfieldwinery.com,,,,36.982388595207496,-76.63135515
Hampton Roads,SummerWind Vineyard,71 Eagle Nest Ln.,Smithfield,VA,757-357-2173,swvsmithfield.com,,,,37.01261255,-76.60942921
Hampton Roads,Upper Shirley Vineyards,600 Shirley Plantation Rd.,Charles City,VA,804-829-9463,uppershirley.com,,,,37.34867362,-77.24116835
Hampton Roads,Williamsburg Winery,5800 Wessex Hundred,Williamsburg,VA,757-229-0999,williamsburgwinery.com,,,,37.2318386,-76.71818763
Eastern Shore,Chatham Vineyards on Church Creek,9232 Chatham Rd.,Machipongo,VA,757-678-5588,chathamvineyards.com,,,,37.453868,-75.932033
Chesapeake Bay,Backporch Vineyard,16595 Wilmont Rd.,King George,VA,540-940-3939,backporchvineyard.com,,,,38.18170138,-77.06702025
Chesapeake Bay,Caret Cellars,495 Meadow Landing Ln.,Caret,VA,540-413-6454,caretcellars.com,,,,37.973435,-76.963723
Chesapeake Bay,Ditchley Cider Works,1571 Ditchley Rd.,Kilmarnock,VA,804-435-3851,ditchleyciderworks.com,,,,37.7342575,-76.33442366
Chesapeake Bay,General's Ridge Vineyard,1618 Weldons Dr.,Hague,VA,804-472-3172,generalsridgevineyard.com,,,,38.029975,-76.663468
Chesapeake Bay,Good Luck Cellars,1025 Good Luck Rd.,Kilmarnock,VA,804-435-1416,goodluckcellars.com,,,,37.7104805,-76.3796997
Chesapeake Bay,Ingleside Vineyards,5872 Leedstown Rd.,Oak Grove,VA,804-224-8687,inglesidevineyards.com,,,,38.9807325,-77.4089183
Chesapeake Bay,Jacey Vineyards,619 Train Ln.,Heathsville,VA,804-580-4053,jaceyvineyard.com,,,,37.8001163,-76.3363669
Chesapeake Bay,Mattapony Reserve,1581 Mattaponi Reservation Cir.,West Point,VA,,mattaponyreserve.info,,,,37.5315303,-76.7963566
Chesapeake Bay,Monroe Bay Winery,4786 James Monroe Hwy.,Colonial Beach,VA,804-410-5628,monroebaywine.com,,,,38.245372,-76.983023
Chesapeake Bay,Rivah Vineyards at The Grove,671 Kinsale Bridge Rd.,Kinsale,VA,804-599-8552,rivahvineyards.com,,,,38.04443973121213,-76.58066389
Chesapeake Bay,The Estate at White Hall Vineyard,3668 White Hall Rd.,King George,VA,540-656-6958,theestateatwhitehall.com,,,,38.2788806,-77.28512806
Chesapeake Bay,The Hague Winery,8268 Cople Hwy.,Hague,VA,804-472-5283,thehaguewinery.com,,,,38.07169,-76.656055
Chesapeake Bay,Triple V Farms,3138 Jessie DuPont Memorial Hwy.,Heathsville,VA,804-724-5765,triplevfarms.com,,,,37.841917,-76.371742
Chesapeake Bay,Wind Vineyards at Laurel Grove,5178 Richmond Hwy.,Tappahannock,VA,804-238-5544,windvineyards.com,,,,37.843328,-76.927641
Chesapeake Bay,Zoll Vineyards,10309 Vineyard Rd.,Dutton,VA,774-275-7581,zollvineyards.com,,,,37.4979152,-76.4574477
Central Virginia,7 Lady Vineyards,1500 Manakin Rd.,Manakin-Sabot,VA,804-784-6051,7ladyvineyards.com,,,,37.657957,-77.72126
Central Virginia,Afton Mountain Vineyards,234 Vineyard Ln.,Afton,VA,540-456-8667,aftonmountainvineyards.com,,,,38.009338,-78.85483
Central Virginia,Albemarle CiderWorks,2545 Rural Ridge Ln.,North Garden,VA,434-297-2326,albemarleciderworks.com,,,,37.96808676896519,-78.65110211
Central Virginia,Ankida Ridge Vineyards,1304 Franklin Creek Rd.,Amherst,VA,434-922-7678,ankidaridge.com,,,,37.7077134,-79.174295
Central Virginia,Ashton Creek Vineyard and Winery,14501 Jefferson Davis Hwy.,Chester,VA,804-896-1586,ashtoncreekvineyard.com,,,,37.30523335,-77.40890499
Central Virginia,Barboursville Vineyards,17655 Winery Rd.,Barboursville,VA,540-832-3824,bbvwine.com,,,,38.1603298,-78.27715
Central Virginia,Barn at 678,6045 Governor Barbour St.,Barboursville,VA,434-981-3793,barnat678.com,,,,38.16655413876015,-78.2743111
Central Virginia,Black Heath Meadery,1313 Altamont Ave.,Richmond,VA,804-998-7090,blackheathmeadery.com,,,,37.565363149999996,-77.47120477
Central Virginia,Blenheim Vineyards,31 Blenheim Farm,Charlottesville,VA,434-293-5366,blenheimvineyards.com,,,,37.93179,-78.499249
Central Virginia,Blue Bee Cider,4811 Bethlehem Rd. Ste. A,Richmond,VA,804-231-0280,bluebeecider.com,,,,37.591741,-77.488847
Central Virginia,Blue Quartz Winery,2585 S F T Valley Rd.,Etlan,VA,540-923-4048,bluequartzwinery.com,,,,38.492884,-78.282927
Central Virginia,Blue Toad Hard Cider,462 Winery Ln.,Roseland,VA,434-760-9200,bluetoadhardcider.com,,,,37.78846,-79.021816
Central Virginia,Bold Rock Hard Cider,1020 Rockfish Valley Hwy.,Nellysford,VA,434-361-1030,boldrock.com,,,,37.88097,-78.905649
Central Virginia,Brent Manor Vineyards,100 Brent Manor Ln.,Faber,VA,434-826-0722,brentmanorvineyards.com,,,,37.8315231,-78.7371019
Central Virginia,Bryant's Cider,3224 E. Branch Loop,Roseland,VA,804-799-0401,bryantscider.com,,,,37.795345,-78.942788
Central Virginia,Burnley Vineyards,4500 Winery Ln.,Barboursville,VA,434-906-0173,burnleywines.com,,,,38.158454,-78.317095
Central Virginia,Buskey Cider,2910 W. Leigh St.,Richmond,VA,804-355-0100,buskeycider.com,,,,37.5660628,-77.4691869
Central Virginia,Byrd Cellars,2442 Davis Mill Rd.,Goochland,VA,804-652-5663,byrdcellars.com,,,,37.75835523,-78.0236482
Central Virginia,Caihailian Vineyard,872 Beech Grove Rd.,Roseland,VA,571-643-1692,chivineyard.com,,,,37.7476406,-78.9758579
Central Virginia,Cardinal Point Vineyard & Winery,9423 Batesville Rd.,Afton,VA,540-456-8400,cardinalpointwinery.com,,,,37.988609,-78.81385
Central Virginia,Castle Glen Winery,18185 Narrow Path Tr.,Doswell,VA,804-763-9677,castleglenwine.com,,,,37.905629,-77.533696
Central Virginia,Castle Hill Cider,6065 Turkey Sag Rd.,Keswick,VA,434-296-0047,castlehillcider.com,,,,38.0888483,-78.29090775
Central Virginia,Chateau MerrillAnne,16234 Marquis Rd.,Orange,VA,540-656-6177,chateaumerrillanne.com,,,,38.18260184645828,-77.97561477
Central Virginia,Chestnut Oak Vineyard,5050 Stony Point Rd.,Barboursville,VA,434-964-9104,chestnutoakvineyard.com,,,,38.141719,-78.328154
Central Virginia,Chisholm Vineyards at Adventure Farm,1135 Clan Chisholm Ln.,Earlysville,VA,434-971-8796,chisholmvineyards.com,,,,38.135079700000006,-78.46179019
Central Virginia,Chiswell Farm and Winery,430 Greenwood Rd.,Greenwood,VA,434-252-2947,chiswellwinery.com,,,,38.044651,-78.772669
Central Virginia,Courthouse Creek Cidery,1581 Maidens Rd.,Maidens,VA,804-543-3157,courthousecreek.com,,,,37.672311,-77.8760931
Central Virginia,Coyote Hole Craft Beverages,225 Oak Grove Dr.,Mineral,VA,540-894-1053,coyotehole.com,,,,38.085614,-77.854053
Central Virginia,Cunningham Creek Winery,3304 Ruritan Lake Rd.,Palmyra,VA,434-207-3907,cunninghamcreek.wine,,,,37.875052,-78.356204
Central Virginia,DeVault Family Vineyards,247 Station Ln.,Concord,VA,434-993-0722,devaultvineyard.com,,,,37.3463761,-78.9712416
Central Virginia,DuCard Vineyards,40 Gibson Hollow Ln.,Etlan,VA,540-923-4206,ducardvineyards.com,,,,38.5255527,-78.2623775
Central Virginia,Eagle Zen Winery,954 Rosser Rd.,Dillwyn,VA,757-880-7006,eaglezenwinery.com,,,,37.629308,-78.548234
Central Virginia,Early Mountain Vineyards,6109 Wolftown Hood Rd.,Madison,VA,540-948-9005,earlymountain.com,,,,38.3519606,-78.31012753
Central Virginia,Eastwood Farm and Winery,2531 Scottsville Rd.,Charlottesville,VA,434-264-6727,eastwoodfarmandwinery.com,,,,37.9659,-78.517105
Central Virginia,Elk Island Winery,5759 River Road West,Goochland,VA,804-627-3929,elkislandwinery.com,,,,37.684151789786355,-77.88535853
Central Virginia,Everleigh Vineyards,9845 Jefferson Hwy.,Mineral,VA,804-464-5667,everleighvineyards.com,,,,37.919563800000006,-77.85739108
Central Virginia,Fallen Tree Winery,4593 Clark Rd.,Crozet,VA,757-647-9398,fallentreevineyard.com,,,,38.135844,-78.658913
Central Virginia,Fifty-Third Winery and Vineyard,13372 Shannon Hill Rd.,Louisa,VA,540-894-1536,53rdwinery.com,,,,37.961184,-77.929082
Central Virginia,Flying Fox Vineyard,10368 Critzer Shop Rd.,Afton,VA,434-361-1692,flyingfoxvineyard.com,,,,38.0323598,-78.839189
Central Virginia,Gabriele Rausse Winery,3247 Carters Mountain Rd.,Charlottesville,VA,434-981-1677,gabrieleraussewinery.com,,,,37.940955,-78.47728
Central Virginia,Garden Grove Brewing & Urban Winery,3445 W. Cary St.,Richmond,VA,804-918-6158,gardengrovebrewing.com,,,,37.554867,-77.485924
Central Virginia,Glass House Winery,5898 Free Union Rd.,Free Union,VA,434-975-0094,glasshousewinery.com,,,,38.200762,-78.578681
Central Virginia,Grace Estate Winery,5273 Mount Juliet Rd.,Crozet,VA,434-823-1486,graceestatewinery.com,,,,38.117796,-78.684255
Central Virginia,Grayhaven Winery,4675 E. Grey Fox Cir.,Gum Spring,VA,804-556-3917,grayhavenwinery.com,,,,37.8060126,-77.90729057
Central Virginia,Haley's Honey Meadery,235 E. Broadway,Hopewell,VA,804-668-5943,haleyshoneymeadery.com,,,,37.3047078,-77.2855384
Central Virginia,Hardware Hills Vineyard,5199 W. River Rd.,Scottsville,VA,434-286-4710,hardwarehills.com,,,,37.789232,-78.405581
Central Virginia,Hark Vineyards,1465 Davis Shop Rd.,Earlysville,VA,434-964-9463,harkvineyards.com,,,,38.213279,-78.549187
Central Virginia,Haunted Vineyards,25231 Selma Rd.,Jetersville,VA,804-250-1421,hauntedvineyards.com,,,,37.29803,-78.165068
Central Virginia,Hazy Mountain Vineyards & Brewery,240 Hazy Mountain Ln.,Afton,VA,540-302-2529,hazy-mountain.com,,,,38.019703,-78.807599
Central Virginia,Henley's Orchard Estate Cidery,2192 Holly Hill Farm,Crozet,VA,434-823-7848,henleysorchard.com,,,,38.096,-78.693306
Central Virginia,Hill Top Berry Farm Winery & Meadery,2800 Berry Hill Rd.,Nellysford,VA,434-361-1266,hilltopberrywine.com,,,,37.900799,-78.846206
Central Virginia,Honah Lee Vineyard,13443 Honah Lee Farm Dr.,Gordonsville,VA,540-308-7724,honahleevineyard.com,,,,38.184756,-78.144821
Central Virginia,Horton Vineyards,6399 Spotswood Tr.,Gordonsville,VA,540-832-7440,hortonwine.com,,,,38.16685,-78.260809
Central Virginia,James River Cellars,11008 Washington Hwy.,Glen Allen,VA,804-550-7516,jamesrivercellars.com,,,,37.700876,-77.461578
Central Virginia,Jefferson Vineyards,1353 Thomas Jefferson Pkwy.,Charlottesville,VA,434-977-3042,jeffersonvineyards.com,,,,37.990052,-78.443646
Central Virginia,Keswick Vineyards,1575 Keswick Winery Dr.,Keswick,VA,434-244-3341,keswickvineyards.com,,,,38.074492,-78.289305
Central Virginia,King Family Vineyards,6550 Roseland Farm,Crozet,VA,434-823-7800,kingfamilyvineyards.com,,,,38.0623934,-78.7284272
Central Virginia,Knight's Gambit Vineyard,218 Knole Farm Ln.,Charlottesville,VA,434-260-9424,knightsgambitvineyard.com,,,,38.093296,-78.621343
Central Virginia,Lazy Days Winery,1351 N. Amherst Hwy.,Amherst,VA,434-381-6088,lazydayswinery.com,,,,37.6187786,-79.0204769
Central Virginia,Loving Cup Vineyard & Winery,3340 Sutherland Rd.,North Garden,VA,434-984-0774,lovingcupwine.com,,,,37.951574,-78.686378
Central Virginia,Lovingston Winery,885 Freshwater Cove Ln.,Lovingston,VA,434-263-8467,lovingstonwinery.com,,,,37.728445,-78.913473
Central Virginia,Merrie Mill Farm & Vineyard,594 Merrie Mill Farm,Keswick,VA,434-365-3006,merriemillfarm.com,,,,38.050871,-78.293065
Central Virginia,Michael Shaps Wineworks,1650 Harris Creek Rd.,Charlottesville,VA,434-296-3438,michaelshapswines.com,,,,38.029306,-78.4766781
Central Virginia,Montifalco Vineyard,1800 Fray Rd.,Ruckersville,VA,434-989-9115,montifalcovineyard.com,,,,38.1946216,-78.4367739
Central Virginia,Moss Vineyards,1849 Simmons Gap Rd.,Dyke,VA,434-990-0111,mossvineyards.net,,,,38.237512,-78.554351
Central Virginia,Mount Alto Vineyards,10436 Howardsville Tpke.,Esmont,VA,804-476-0883,mountaltovineyards.com,,,,37.826817,-78.597861
Central Virginia,Mount Fair Vineyard,4575 Slam Gate Rd.,Crozet,VA,646-453-7600,mountfairvineyard.com,,,,38.161998,-78.676901
Central Virginia,Mountain & Vine Vineyards and Winery,500 Delfosse Winery Ln.,Faber,VA,434-263-6100,delfossewine.com,,,,37.8315231,-78.7371019
Central Virginia,Muddy Paws Winery,2640 Rock Island Rd.,Scottsville,VA,410-365-4175,muddypawswinery.com,,,,37.738886,-78.539583
Central Virginia,Oakencroft Farm & Winery,1455 Oakencroft Cir.,Charlottesville,VA,434-234-7066,oakencroftfarm.com,,,,38.084456,-78.551594
Central Virginia,Pippin Hill Farm & Vineyards,5022 Plank Rd.,North Garden,VA,434-202-8063,pippinhillfarm.com,,,,37.96198655,-78.65838666
Central Virginia,Pollak Vineyards,330 Newtown Rd.,Greenwood,VA,540-456-8844,pollakvineyards.com,,,,38.034566,-78.794361
Central Virginia,Potter's Craft Cider,1350 Arrowhead Valley Rd.,Charlottesville,VA,434-244-2767,potterscraftcider.com,,,,37.99866585,-78.57990471
Central Virginia,Prince Michel Vineyard,154 Winery Ln.,Leon,VA,800-800-9463,princemichel.com,,,,38.4362,-78.154291
Central Virginia,Rassawek Winery,6276 River Road West,Columbia,VA,804-389-1164,rassawek.com,,,,34.005042,-81.087214
Central Virginia,Rebec Vineyards,2229 N. Amherst Hwy.,Amherst,VA,434-946-5168,rebecwinery.com,,,,37.6412792,-78.9856402
Central Virginia,Reserve: Tasting Room & Lounge,1101 Jefferson St. Ste. 100,Lynchburg,VA,434-316-2752,reservelbc.com,,,,37.41398735,-79.13914925
Central Virginia,Revalation Vineyards,2710 Hebron Valley Rd.,Madison,VA,540-407-1236,revalationvineyards.com,,,,38.437085832665716,-78.23635896
Central Virginia,Reynard Florence Vineyard,16109 Burnley Rd.,Barboursville,VA,540-832-3895,reynardflorence.com,,,,38.185407,-78.337244
Central Virginia,River Dog Winery,7959 Bradbury Rd.,Henrico,VA,804-385-3770,riverdogwinery.com,,,,37.6294756,-77.5189032
Central Virginia,Septenary The Winery at Seven Oaks Farm,200 Seven Oaks Farm,Greenwood,VA,434-996-6292,septenarywinery.com,,,,38.041286,-78.747596
Central Virginia,Skippers Creek Vineyard,965 Rocky Ford Rd.,Powhatan,VA,804-598-7291,skipperscreekvineyard.com,,,,37.4706654,-77.8836617
Central Virginia,South Paddock Winery,6672 Blenheim Rd.,Scottsville,VA,202-251-5291,whitehallfarmandvineyard.com/winery,,,,37.850431,-78.505945
Central Virginia,Southern Revere Cellars,1100 E. Jack Jouett Rd.,Louisa,VA,540-260-5494,southernrevere.com,,,,37.966068,-78.100706
Central Virginia,Southwest Mountains Vineyards,2300 Whipper In Ln.,Keswick,VA,434-212-3244,smvwines.com,,,,38.064443,-78.331121
Central Virginia,Stinson Vineyards,4744 Sugar Hollow Rd.,Crozet,VA,434-823-7300,stinsonvineyards.com,,,,38.1195835,-78.6645847
Central Virginia,Stone Mountain Vineyards,1376 Wyatt Mountain Rd.,Dyke,VA,434-990-9463,stonemountainvineyards.com,,,,38.278664,-78.585374
Central Virginia,Sweet Briar College Farm,134 Chapel Rd.,Sweet Briar,VA,434-381-0409,sbc.edu/farm,,,,38.135079700000006,-79.06252903
Central Virginia,Sweet Vines Farm Winery,14376 Tower Rd.,Unionville,VA,703-942-9336,thevines.farm,,,,38.205488,-77.915213
Central Virginia,Tasting Room & Taphouse at Mount Ida Reserve,5931 Blenheim Rd.,Charlottesville,VA,434-286-4282,mountidareserve.com,,,,38.029306,-78.4766781
Central Virginia,Trump Winery,385 Albemarle House Dr.,Charlottesville,VA,434-266-9909,trumpwinery.com,,,,37.951083,-78.50787
Central Virginia,Valley Road Vineyards,9264 Critzers Shop Rd. (Rt. 151),Afton,VA,540-456-6350,valleyroadwines.com,,,,38.020964,-78.822218
Central Virginia,Veritas Vineyard & Winery,151 Veritas Ln.,Afton,VA,540-456-8000,veritaswines.com,,,,38.015526,-78.836473
Central Virginia,White Hall Vineyards,5282 Sugar Ridge Rd.,Crozet,VA,434-823-8615,whitehallvineyards.com,,,,38.1348384,-78.6842185
Central Virginia,Wisdom Oak Winery,3613 Walnut Branch Ln.,North Garden,VA,434-984-4272,wisdomoakwinery.com,,,,37.93873,-78.613355
Central Virginia,Woodbrook Farm Vineyard,11461 Spicers Mill Rd.,Orange,VA,540-219-1874,woodbrookfarmvineyard.com,,,,38.24474873,-78.17131439
Blue Ridge,Abingdon Vineyards,20530 Alvarado Rd.,Abingdon,VA,276-623-1255,abingdonvineyards.com,,,,36.6582483,-81.8889817
Blue Ridge,Beliveau Farm Winery,3899 Eakin Farm Rd.,Blacksburg,VA,540-961-0505,beliveauwinery.com,,,,37.312071,-80.278918
Blue Ridge,Chateau Morrisette Winery,291 Winery Rd. SW,Floyd,VA,540-593-2865,thedogs.com,,,,36.793805,-80.39387
Blue Ridge,Davis Valley Winery & Distillery,1167 Davis Valley Rd.,Rural Retreat,VA,276-686-8855,davisvalleywinery.com,,,,36.902861,-81.360307
Blue Ridge,Iron Heart Winery,3742 Boone Furnace Rd.,Allisonia,VA,540-320-0203,ironheartwinery.com,,,,36.920731,-80.769154
Blue Ridge,JBR Vineyards & Winery,1360 Springdale Rd.,Pearisburg,VA,540-250-7291,jbrvineyards.com,,,,37.224891,-80.698986
Blue Ridge,Nicewonder Farms & Vineyard,22091 Nicewonder Dr.,Bristol,VA,276-299-3260,nicewonderfarm.com,,,,36.628856,-82.092365
Blue Ridge,Spinning Jenny Vineyard,2664 Old Route 100 Rd.,Draper,VA,540-922-9829,spinningjennyvineyard.com,,,,37.007394293440505,-80.74429808
Blue Ridge,Squabble State Hard Cider & Spirits,7300 Brownlow Dr.,Bristol,VA,276-294-2196,squabblestate.com,,,,36.61389,-82.22645
Blue Ridge,The New River Vineyard & Winery,6750 Falling Branch Rd.,Fairlawn,VA,540-633-0033,nrvwine.com,,,,37.1226954,-80.6074956
Blue Ridge,Tumbling Creek Cider Company,238 W. Main St.,Abingdon,VA,276-451-5901,tumblingcreekcider.com,,,,36.7089555,-81.9783968
Blue Ridge,Villa Appalaccia,752 Rock Castle Gorge Rd.,Floyd,VA,540-593-3100,villaappalaccia.com,,,,36.817324258954905,-80.34389119
Blue Ridge,West Wind Farm Vineyard and Winery,180 West Wind Dr.,Max Meadows,VA,276-699-2020,westwindwine.com,,,,36.902268,-80.909614
Virginia Mountains,Big Fish Cider Co.,59 Spruce St.,Monterey,VA,540-468-2322,bigfishcider.com,,,,38.4122225,-79.5829143
Virginia Mountains,Brooks Mill Winery,6221 Brooks Mill Rd.,Wirtz,VA,540-721-5215,brooksmillwine.com,,,,37.06533,-79.75481
Virginia Mountains,Burnbrae Vineyards,3524 Cottontown Rd.,Forest,VA,336-339-5634,burnbraevineyards.com,,,,37.3971009,-79.2749495
Virginia Mountains,Fables & Feathers Winery,2117 Bruno Dr.,Goodview,VA,540-420-0916,fablesandfeatherswinery.com,,,,37.231707,-79.708141
Virginia Mountains,Graham Ordinary Lodge and Meadery,8578 Peaks Rd.,Bedford,VA,540-986-5621,grahamordinary.com,,,,37.4337073,-79.5798948
Virginia Mountains,Hickory Hill Vineyards,1722 Hickory Cove Ln.,Moneta,VA,540-296-1393,SMLwine.com,,,,37.1294993,-79.6300052
Virginia Mountains,Peaks of Otter Winery & Orchards,1218 Elmos Rd.,Bedford,VA,540-586-3707,peaksofotterwinery.com,,,,37.3980235,-79.6248968
Virginia Mountains,Ramulose Ridge Vineyards,3061 Hendricks Store Rd.,Moneta,VA,540-797-6056,ramuloseridgevineyards.com,,,,37.1360834,-79.6292852
Virginia Mountains,Seven Doors Winery,5800 Johnson Mountain Rd.,Huddleston,VA,540-605-8745,sevendoorswinery.com,,,,37.185159,-79.387233
Virginia Mountains,Stoney Brook Vineyards & Winery,516 Stoney Battery Rd.,Troutville,VA,540-591-7089,stoneybrookvineyards.com,,,,37.414565153061226,-79.86723941
Virginia Mountains,Troddenvale at Oakley Farm,170 Oakley Farm Ln.,Warm Springs,VA,,troddenvale.com,,,,38.0431573,-79.7898265
Virginia Mountains,Valhalla Vineyards,6500 Mt. Chestnut Rd.,Roanoke,VA,540-725-9463,valhallawines.com,,,,37.2242299,-80.0547425
Virginia Mountains,Virginia Mountain Vineyards,4204 Old Fincastle Rd.,Fincastle,VA,540-473-2979,vmvines.com,,,,37.5698409,-79.8812581
Southern Virginia,2 Witches Winery & Brewing Co.,209 Trade St.,Danville,VA,434-549-2739,2witcheswinebrew.com,,,,36.58590348544224,-79.42125553
Southern Virginia,Altillo Vineyards,620 Level Run Rd.,Hurt,VA,434-324-4160,altillovineyards.com,,,,37.0648125,-79.24445704
Southern Virginia,American Way Country Wines,13750 Hwy. 47,Chase City,VA,434-262-1250,americanwaycountrywines.com,,,,36.7993418,-78.4585771
Southern Virginia,Bright Meadows Farm,1181 Nathalie Rd.,Nathalie,VA,434-349-9463,brightmeadowsfarm.com,,,,36.932911,-78.949448
Southern Virginia,Hamlet Vineyards,405 Riverside Dr.,Bassett,VA,276-629-2121,hamletvineyards.com,,,,36.735099,-79.962893
Southern Virginia,Hunting Creek Vineyards,2000 Addie Williams Tr.,Clover,VA,434-454-9219,hcvwines.com,,,,36.8326402,-78.7333385
Southern Virginia,Rosemont Vineyards,1050 Blackridge Rd.,La Crosse,VA,434-636-9463,rosemontofvirginia.com,,,,36.591661,-78.065791
Southern Virginia,The Homeplace Vineyard,568 Rigney Cir.,Chatham,VA,434-432-9463,thehomeplacevineyard.com,,,,36.86776,-79.473514
Southern Virginia,Three Sisters of Shiney Rock,5484 Shiney Rock Rd.,Clarksville,VA,434-298-6693,threesistersofshineyrock.com,,,,36.551863,-78.59956
Southern Virginia,Woodbine Vineyards,1142 Hite Dr.,Buffalo Junction,VA,434-222-1459,woodbinevineyardsandwinery.com,,,,36.6048497,-78.6304968
Shenandoah Valley,12 Ridges Vineyard,24981 Blue Ridge Parkway,Vesuvius,VA,434-996-4252,12ridges.com,,,,37.896244,-79.121436
Shenandoah Valley,Above Ground Winery,975 McKinley Rd.,Middlebrook,VA,540-430-4394,agwinery.com,,,,38.042652,-79.298762
Shenandoah Valley,Barren Ridge Vineyards,984 Barren Ridge Rd.,Fishersville,VA,540-248-3300,barrenridgevineyards.com,,,,38.133606900000004,-78.95602617
Shenandoah Valley,Blue Ridge Vineyard,1027 Shiloh Dr.,Eagle Rock,VA,540-798-7642,blueridgevineyard.com,,,,37.6406864,-79.8011563
Shenandoah Valley,Bluestone Vineyard,4828 Spring Creek Rd.,Bridgewater,VA,540-828-0099,bluestonevineyard.com,,,,38.387521,-79.009498
Shenandoah Valley,Briedé Family Vineyards,450 Green Spring Rd.,Winchester,VA,540-664-2048,briedevineyards.com,,,,39.298409,-78.154352
Shenandoah Valley,Brix and Columns Vineyards,1501 Dave Berry Rd.,McGaheysville,VA,540-810-0566,brixandcolumns.com,,,,38.3694974,-78.696842
Shenandoah Valley,Cave Ridge Vineyard,1476 Conicville Rd.,Mt. Jackson,VA,540-477-2585,caveridge.com,,,,38.814569,-78.669093
Shenandoah Valley,Ciders From Mars,121 S. Lewis St.,Staunton,VA,540-416-2120,cidersfrommars.com,,,,38.1474839,-79.074228
Shenandoah Valley,Common Wealth Crush Co.,1010 E. Main St. Ste. 110,Waynesboro,VA,,commonwealthcrush.com,,,,38.06475789795919,-78.87479612
Shenandoah Valley,CrossKeys Vineyards,6011 E. Timber Ridge Rd.,Mt. Crawford,VA,540-234-0505,crosskeysvineyards.com,,,,38.32282,-78.85085
Shenandoah Valley,Ecco Adesso Vineyards,340 Ecco Adesso Ln.,Fairfield,VA,540-817-0419,eccoadesso.com,,,,37.835917,-79.307848
Shenandoah Valley,Glen Manor Vineyards,2244 Browntown Rd.,Front Royal,VA,540-635-6324,glenmanorvineyards.com,,,,38.9179069,-78.1918077
Shenandoah Valley,Great Valley Farm Brewery & Winery,60 Great Valley Ln.,Natural Bridge,VA,540-521-6163,greatvalleyfarmbrewery.com,,,,37.680196,-79.513085
Shenandoah Valley,Halcyon Days Cider Co.,4135 S. Lee Hwy.,Natural Bridge,VA,540-291-1340,halcyondayscider.com,,,,37.681351,-79.496563
Shenandoah Valley,Hermitage Hill Cider at Stable Craft Brewing,375 Madrid Rd.,Waynesboro,VA,540-490-2609,stablecraftbrewing.com,,,,38.1601126,-78.9061107
Shenandoah Valley,Honey & Hops Brew Works,212 E. Main St.,Front Royal,VA,540-692-6032,honeyandhopsbrewworks.com,,,,38.917855450000005,-78.19109815
Shenandoah Valley,James Charles Winery & Vineyard,4063 Middle Rd.,Winchester,VA,540-931-4386,jamescharleswine.com,,,,39.125869,-78.230607
Shenandoah Valley,Jump Mountain Vineyard,1493 Walkers Creek Rd.,Rockbridge Baths,VA,540-348-6730,jumpwines.com,,,,37.9345498,-79.3851094
Shenandoah Valley,Lexington Valley Vineyard,80 Norton Way,Rockbridge Baths,VA,540-462-2974,lexingtonvalleyvineyard.com,,,,37.898921,-79.4068338
Shenandoah Valley,Lightwell Survey Wines,200 W. 12th St. Unit D53,Waynesboro,VA,,lightwellsurvey.com,,,,38.062108,-78.888525
Shenandoah Valley,Marceline Vineyards,5887 Cross Keys Rd.,Mt. Crawford,VA,540-212-9798,marcelinevineyards.com,,,,38.323392,-78.868727
Shenandoah Valley,Misty Mountain Meadworks,661 Warm Springs Rd.,Winchester,VA,540-336-2273,mistymountainmead.com,,,,39.290026,-78.163319
Shenandoah Valley,Muse Vineyards,16 Serendipity Ln.,Woodstock,VA,540-459-7033,musevineyards.com,,,,38.857373,-78.50143
Shenandoah Valley,North Mountain Vineyard & Winery,4374 Swartz Rd.,Maurertown,VA,540-436-9463,northmountainvineyard.com,,,,38.949261,-78.478349
Shenandoah Valley,Old Hill Cider,17768 Honeyville Rd.,Timberville,VA,540-896-7582,showaltersorchard.com,,,,38.667709,-78.796574
Shenandoah Valley,Ox-Eye Vineyards,44 Middlebrook Ave.,Staunton,VA,540-849-7926,oxeyevineyards.com,,,,38.14695,-79.074031
Shenandoah Valley,Reitano Vineyards,137 Lee Burke Rd.,Front Royal,VA,540-550-0334,reitanovineyards.com,,,,38.9179069,-78.1918077
Shenandoah Valley,Rockbridge Vineyard & Brewery,35 Hill View Ln.,Raphine,VA,540-377-6204,rockbridgevineyard.com,,,,37.9373548,-79.2328102
Shenandoah Valley,Saga Meadery & Winery,7 South St.,Front Royal,VA,339-221-3115,sagameadery.com,,,,38.911874142857144,-78.19430078
Shenandoah Valley,Sage Bird Ciderworks,325 N. Liberty St.,Harrisonburg,VA,540-607-8084,sagebirdciderworks.com,,,,38.45306845,-78.87001265
Shenandoah Valley,Shenandoah Vineyards,3659 S. Ox Rd.,Edinburg,VA,540-984-8699,shenandoahvineyardsva.com,,,,38.848959,-78.559001
Shenandoah Valley,Star in the Valley Estate Winery,33 Amos Ln.,Strasburg,VA,540-514-1687,starinthevalley.com,,,,39.033407499999996,-78.4139001
Shenandoah Valley,Star Party,27 W. Beverley St.,Staunton,VA,540-416-2267,starpartywinery.com,,,,38.14960805,-79.0735667
Shenandoah Valley,The Winery at Kindred Pointe,3575 Conicville Rd.,Mt. Jackson,VA,540-477-3570,kindredpointe.com,,,,38.796689,-78.651894
Shenandoah Valley,Third Hill Winery at DeMello Vineyards,2110 Quicksburg Rd.,Quicksburg,VA,540-740-8464,demellovineyardsthirdhillwinery.com,,,,38.702489,-78.692223
Shenandoah Valley,Twin Oaks Tavern Winery,18035 Raven Rocks Rd.,Bluemont,VA,540-554-4547,twinoakstavernwinery.com,,,,39.120993,-77.84495
Shenandoah Valley,Valerie Hill Vineyard & Winery,1687 Marlboro Rd.,Stephens City,VA,540-869-9567,valeriehillwinery.com,,,,39.09023,-78.273601
Shenandoah Valley,Veramar Vineyard,905 Quarry Rd.,Berryville,VA,540-955-5510,veramar.com,,,,39.118007,-77.914616
Shenandoah Valley,White Oak Lavender & The Purple Wolf Vineyard,2644 Cross Keys Rd.,Rockingham,VA,540-421-6345,whiteoaklavender.com,,,,38.3631894,-78.8381548
Shenandoah Valley,Winchester Ciderworks,30 E. Piccadilly St.,Winchester,VA,540-686-7832,winchesterciderworks.com,,,,39.1862832,-78.163799
Shenandoah Valley,Wisteria Farm & Vineyard,1126 Marksville Rd.,Stanley,VA,540-742-5215,wisteriavineyard.com,,,,38.574266,-78.47429
Shenandoah Valley,Wolf Gap Vineyard & Winery,123 Stout Rd.,Edinburg,VA,540-984-3306,wolfgapvineyard.com,,,,38.827287,-78.632326
Northern Virginia,50 West Vineyards,39060 Little River Tpke.,Middleburg,VA,571-367-4760,50westvineyards.com,,,,38.981214,-77.658302
Northern Virginia,8 Chains North,38593 Daymont Ln.,Waterford,VA,571-439-2255,8chainsnorth.com,,,,39.1796411,-77.66689354
Northern Virginia,868 Estate Vineyards,14001 Harpers Ferry Rd.,Hillsboro,VA,540-668-7008,868estatevineyards.com,,,,27.9129,-82.2923
Northern Virginia,Arterra Wines,1808 Leeds Manor Rd.,Delaplane,VA,540-422-3443,arterrawines.com,,,,38.967483,-77.971903
Northern Virginia,Aspen Dale Winery at The Barn,11083 John Marshall Hwy.,Delaplane,VA,540-364-1722,aspendalewinery.com,,,,38.907228,-77.919609
Northern Virginia,Bacchus Winery,6320 Five Mile Centre Park,Fredericksburg,VA,540-903-0917,bacchusva.com,,,,38.288308,-77.55387
Northern Virginia,Barrel Oak Winery and Brewery,3623 Grove Ln.,Delaplane,VA,540-364-6402,barreloak.com,,,,38.885341,-77.896112
Northern Virginia,Bleu Frog Vineyards,16413 James Monroe Hwy.,Leesburg,VA,703-297-2617,bleufrogvineyards.com,,,,39.163159,-77.541749
Northern Virginia,Blue Valley Vineyard and Winery,5535 Blue Valley Way,Delaplane,VA,540-364-2347,bluevalleyvineyardandwinery.com,,,,38.892139,-77.901496
Northern Virginia,Blue Wall Cider & Wine,40614 Charles Town Pike,Paeonian Springs,VA,540-454-2505,bluewallcider.com,,,,39.1495831,-77.61619062
Northern Virginia,Bluemont Vineyard,18755 Foggy Bottom Rd.,Bluemont,VA,540-554-8439,bluemontvineyard.com,,,,39.097377,-77.836234
Northern Virginia,Boxwood Estate Winery,2042 Burrland Ln.,Middleburg,VA,540-687-8778,boxwoodwinery.com,,,,38.959786,-77.746471
Northern Virginia,Bozzo Family Vineyards,35226 Charles Town Pike,Purcellville,VA,571-918-9001,bozwines.com,,,,39.23839,-77.754359
Northern Virginia,Breaux Vineyards,36888 Breaux Vineyards Ln.,Purcellville,VA,540-668-6299,breauxvineyards.com,,,,39.231783,-77.726494
Northern Virginia,Cana Vineyards and Winery of Middleburg,38600 Little River Tpke.,Middleburg,VA,703-348-2458,canavineyards.com,,,,38.978473,-77.668662
Northern Virginia,Capstone Vineyards,13400 Crimson Ln.,Linden,VA,540-308-9463,capstonevineyards.com,,,,38.911969,-78.069038
Northern Virginia,Carriage House Wineworks,40817 Browns Ln.,Waterford,VA,571-239-9120,chwwinery.com,,,,39.1886377,-77.58934261
Northern Virginia,Casanel Vineyards and Winery,17956 Canby Rd.,Leesburg,VA,540-751-1776,casanelvineyards.com,,,,39.11798,-77.628291
Northern Virginia,Chateau O'Brien at Northpoint,3238 Rail Stop Rd.,Markham,VA,540-364-6441,chateauobrien.com,,,,41.60113,-87.695709
Northern Virginia,Chester Gap Cellars,4615 Remount Rd.,Front Royal,VA,540-636-8086,chestergapcellars.com,,,,38.9089085,-78.18485667
Northern Virginia,Chrysalis Vineyards at The Ag District,39025 Little River Tpke.,Middleburg,VA,540-687-8222,chrysaliswine.com,,,,38.971129,-77.657325
Northern Virginia,Cobbler Mountain Cellars Cidery,5909 Long Fall Ln.,Delaplane,VA,703-344-8610,cobblermountain.com,,,,38.847118,-77.945581
Northern Virginia,Corcoran Vineyards and Cider,14635 Corkys Farm Ln.,Waterford,VA,540-882-9073,corcoranvineyards.com,,,,39.21121355,-77.65374892
Northern Virginia,Creek's Edge Winery,41255 Annas Ln.,Lovettsville,VA,540-822-3825,creeksedgewinery.com,,,,39.255885,-77.572511
Northern Virginia,Crimson Lane Vineyards,13334 Crimson Ln.,Linden,VA,540-506-5062,crimsonlanevineyards.com,,,,42.73358,-106.27947
Northern Virginia,Crushed Cellars,37938 Charles Town Pike,Purcellville,VA,571-374-9463,crushedcellars.com,,,,39.188351,-77.690522
Northern Virginia,Delaplane Cellars,2187 Winchester Rd.,Delaplane,VA,540-592-7210,delaplanecellars.com,,,,38.95017,-77.935023
Northern Virginia,Domaine Fortier,13235 Milltown Rd.,Lovettsville,VA,703-870-1225,domainefortier.com,,,,39.247638,-77.62478
Northern Virginia,Doukénie Winery,14727 Mountain Rd.,Hillsboro,VA,540-668-6464,doukeniewinery.com,,,,39.211521649999995,-77.7093591
Northern Virginia,Eagletree Farm Vineyards,15100 Harrison Hill Ln.,Leesburg,VA,703-851-0699,eagletreevineyards.com,,,,39.198695,-77.493885
Northern Virginia,Eden Try Estate Winery,6818 River Rd.,Fredericksburg,VA,818-468-2936,edentrywinery.com,,,,38.329098,-77.572847
Northern Virginia,Effingham Manor Winery,14325 Trotters Ridge Place,Nokesville,VA,703-594-2300,effinghammanor.com,,,,38.6382694,-77.52195855
Northern Virginia,Endhardt Vineyards,19600 Lincoln Rd.,Purcellville,VA,,endhardtvineyards.com,,,,39.073264,-77.694095
Northern Virginia,Fabbioli Cellars,15669 Limestone School Rd.,Leesburg,VA,703-771-1197,fabbioliwines.com,,,,39.181796,-77.518862
Northern Virginia,Firefly Cellars,40325 Charles Town Pike,Hamilton,VA,703-314-5650,fireflycellars.com,,,,39.150063,-77.625482
Northern Virginia,Fleetwood Farm Winery,23075 Evergreen Mills Rd.,Leesburg,VA,703-722-2124,fleetwoodfarmwinery.com,,,,38.988844,-77.562309
Northern Virginia,Fox Meadow Vineyards and Winery,3310 Freezeland Rd.,Linden,VA,540-636-6777,foxmeadowwinery.com,,,,38.936093,-78.046247
Northern Virginia,Gadino Cellars,92 Schoolhouse Rd.,Washington,VA,540-987-9292,gadinocellars.com,,,,38.682314,-78.170985
Northern Virginia,Good Spirit Winery,35113 Snickersville Tpke.,Round Hill,VA,571-479-3417,goodspiritfarmva.com,,,,39.087918,-77.795147
Northern Virginia,Granite Heights Winery,8141 Opal Rd.,Warrenton,VA,540-349-5185,gh.wine,,,,38.637906,-77.843668
Northern Virginia,Gray Ghost Vineyards,14706 Lee Hwy.,Amissville,VA,540-937-4869,grayghostvineyards.com,,,,38.677669,-78.004591
Northern Virginia,Greenhill Vineyards,23595 Winery Ln.,Middleburg,VA,540-687-6968,experiencegreenhill.com,,,,38.966007,-77.705213
Northern Virginia,Hidden Brook Winery,43301 Spinks Ferry Rd.,Leesburg,VA,703-737-3935,hiddenbrookwinery.com,,,,39.20763,-77.499809
Northern Virginia,Hiddencroft Vineyards,12202 Axline Rd.,Lovettsville,VA,540-535-5367,hiddencroftvineyards.com,,,,39.273599,-77.674392
Northern Virginia,Hillsborough Winery Brewery & Vineyard,36716 Charles Town Pike,Hillsboro,VA,540-668-6216,hillsboroughwine.com,,,,39.206159799999995,-77.73373954
Northern Virginia,Kalero Vineyard,36140 Charles Town Pike,Purcellville,VA,540-717-8118,kalerovineyard.com,,,,39.21569,-77.742744
Northern Virginia,Lake Anna Winery,5621 Courthouse Rd.,Spotsylvania,VA,540-895-5085,lawinery.com,,,,38.1121831,-77.7660905
Northern Virginia,Linden Vineyards,3708 Harrels Corner Rd.,Linden,VA,540-364-1997,lindenvineyards.com,,,,38.880734,-78.07164
Northern Virginia,Little Washington Winery and Brewery,72 Christmas Tree Ln.,Washington,VA,540-987-8330,littlewashingtonwinery.com,,,,38.693734,-78.18761
Northern Virginia,Lost Boy Cider,317 Hooffs Run Dr.,Alexandria,VA,703-566-5737,lostboycider.com,,,,38.7987804,-77.0633025
Northern Virginia,Magnolia Vineyards & Winery,200 Viewtown Rd.,Amissville,VA,703-785-8190,magnoliavineyards.com,,,,38.645157,-78.032051
Northern Virginia,Mattaponi Winery,7530 Morris Rd.,Spotsylvania Courthouse,VA,540-582-2897,mattaponiwinery.com,,,,38.144042,-77.59357178
Northern Virginia,Mediterranean Cellars,8295 Falcon Glen Rd.,Warrenton,VA,540-428-1984,mediterraneancellars.com,,,,38.757295,-77.853183
Northern Virginia,Molon Lave Vineyards,10075 Lees Mill Rd.,Warrenton,VA,540-439-5460,molonlavevineyards.com,,,,38.62059735,-77.82399255
Northern Virginia,Morais Vineyards & Winery,11409 Marsh Rd.,Bealeton,VA,540-729-4823,moraisvineyards.com,,,,38.56706145,-77.75125832
Northern Virginia,Mountain Run Winery,10753 Mountain Run Lake Rd.,Culpeper,VA,703-638-5559,mountainrunwinery.com,,,,38.463915232780636,-78.05605031
Northern Virginia,Mt. Defiance Cider Barn,495 E. Washington St.,Middleburg,VA,540-883-3176,mtdefiance.com,,,,38.971294893939394,-77.7296382
Northern Virginia,Naked Mountain Winery and Vineyards,2747 Leeds Manor Rd.,Markham,VA,540-364-1609,nakedmtnwinery.com,,,,38.9281598,-77.998
Northern Virginia,Narmada Winery,43 Narmada Ln.,Amissville,VA,540-937-8215,narmadawinery.com,,,,38.691682,-78.025574
Northern Virginia,Nokesville Winery,12593 Foremost Ct.,Nokesville,VA,703-330-3467,nokesvillewinery.com,,,,38.684041,-77.570738
Northern Virginia,Notaviva Farm Brewery & Winery,13274 Sagle Rd.,Hillsboro,VA,540-668-6756,notaviva.com,,,,39.198654,-77.7244269
Northern Virginia,October One Vineyard – Tasting Shop,7 Loudoun St. SW,Leesburg,VA,,octoberonevineyard.com/wine-tasting-shop-leesburg/,,,,39.1143584,-77.5659633
Northern Virginia,Old Farm Winery at Hartland,23583 Fleetwood Rd.,Aldie,VA,571-899-4380,oldfarmwineryhartland.com,,,,38.968365199999994,-77.56916335
Northern Virginia,Old House Vineyards,18351 Corkys Ln.,Culpeper,VA,540-423-1032,oldhousetoday.com,,,,38.4548144,-77.9128604
Northern Virginia,Old Trade Brewery & Cidery,13270 Alanthus Rd.,Brandy Station,VA,540-729-1740,oldtradebrewery.com,,,,38.51867765,-77.90761306
Northern Virginia,Otium Cellars,18050 Tranquility Rd.,Purcellville,VA,540-338-2027,otiumcellars.com,,,,39.115416,-77.745204
Northern Virginia,Paradise Springs Winery,13219 Yates Ford Rd.,Clifton,VA,703-830-9463,paradisespringswinery.com,,,,38.7656462,-77.4050859
Northern Virginia,Pearmund Cellars,6190 Georgetown Rd.,Broad Run,VA,540-347-3475,pearmundcellars.com,,,,38.78455,-77.738849
Northern Virginia,Philip Carter Winery of Virginia,4366 Stillhouse Rd.,Hume,VA,540-364-1203,pcwinery.com,,,,38.856052,-77.990862
Northern Virginia,Potomac Point Vineyard & Winery,275 Decatur Rd.,Stafford,VA,540-446-2266,potomacpointwinery.com,,,,38.45198833876339,-77.36227738
Northern Virginia,Quattro Goombas Winery and Craft Brewery,22860 James Monroe Hwy.,Aldie,VA,703-327-6052,quattrogoombas.com,,,,38.985428,-77.616799
Northern Virginia,Quièvremont Wine,162 Gid Brown Hollow Rd.,Washington,VA,540-827-4579,quievremont.com,,,,38.689864,-78.211238
Northern Virginia,Rappahannock Cellars,14437 Hume Rd.,Huntly,VA,540-635-9398,rappahannockcellars.com,,,,38.8347266,-78.1140974
Northern Virginia,RdV Vineyards,2550 Delaplane Grade Rd.,Delaplane,VA,540-364-0221,rdvvineyards.com,,,,38.934942050000004,-77.91801464
Northern Virginia,Rogers Ford Farm Winery,14674 Rogers Ford Rd.,Sumerduck,VA,540-439-3707,rogersfordwine.com,,,,38.42499785,-77.73214682
Northern Virginia,Sharp Rock Vineyards,5 Sharp Rock Rd.,Sperryville,VA,540-987-8020,sharprockvineyards.com,,,,38.555382,-78.25501
Northern Virginia,Slater Run Vineyards,1500 Crenshaw Rd.,Upperville,VA,540-878-1476,slaterrun.com,,,,38.9939977,-77.8847178
Northern Virginia,Stone Tower Winery,19925 Hogback Mountain Rd.,Leesburg,VA,703-777-2797,stonetowerwinery.com,,,,39.064085,-77.634888
Northern Virginia,Stonehouse Meadery,36580 Shoemaker School Rd.,Purcellville,VA,571-512-0763,stonehousemeadery.com,,,,39.087545,-77.740671
Northern Virginia,Sunset Hills Vineyard,38295 Fremont Overlook Ln.,Purcellville,VA,540-882-4560,sunsethillsvineyard.com,,,,39.180101,-77.678117
Northern Virginia,Terra Nebulo Vineyards,39892 Old Wheatland Rd.,Waterford,VA,703-622-9117,terranebulo.com,,,,39.19040071324108,-77.61887058
Northern Virginia,The Barns at Hamilton Station Vineyards,16804 Hamilton Station Rd.,Hamilton,VA,540-751-9511,thebarnsathamiltonstation.com,,,,39.152322,-77.645226
Northern Virginia,The Vineyard & Winery at Lost Creek,32 S. King St.,Leesburg,VA,703-443-9836,lostcreekwinery.com,,,,39.1144358,-77.5649059
Northern Virginia,The Wine Reserve at Waterford,38516 Charles Town Pike,Waterford,VA,540-692-9463,waterfordwinereserve.com,,,,39.190512,-77.66981
Northern Virginia,The Winery at Bull Run,15950 Lee Hwy.,Centreville,VA,703-815-2233,wineryatbullrun.com,,,,38.83562,-77.453003
Northern Virginia,The Winery at La Grange,4970 Antioch Rd.,Haymarket,VA,703-753-9360,wineryatlagrange.com,,,,38.8508817,-77.6861043
Northern Virginia,The Winery at Sunshine Ridge Farm,15850 Sunshine Ridge Ln.,Gainesville,VA,703-753-9500,thewineryatsunshineridgefarms.com,,,,38.764452,-77.660214
Northern Virginia,Three Creeks Winery,18548 Harmony Church Rd.,Hamilton,VA,540-369-4655,3creekswinery.com,,,,39.108515,-77.651249
Northern Virginia,Three Fox Vineyards & Farm Brewery,10100 Three Fox Ln.,Delaplane,VA,703-594-6136,threefoxvineyards.com,,,,38.91620915,-77.92591433
Northern Virginia,Two Twisted Posts Winery,12944 Harpers Ferry Rd.,Purcellville,VA,540-668-6540,twotwistedposts.com,,,,39.259243,-77.721387
Northern Virginia,Village Winery,40405 Browns Ln.,Waterford,VA,540-882-3780,villagewineryandvineyards.com,,,,39.186557,-77.60243282
Northern Virginia,Vint Hill Craft Winery,7150 Lineweaver Rd.,Warrenton,VA,540-351-0000,vinthillcraftwinery.com,,,,38.742823,-77.675797
Northern Virginia,Walsh Family Wine,16031 Hillsboro Rd.,Purcellville,VA,540-668-6248,walshfamilywine.com,,,,39.175161,-77.725851
Northern Virginia,Wild Hare Cider Cabin,106A South St. SE,Leesburg,VA,703-402-7956,wildharecider.com,,,,39.1123784,-77.5631984
Northern Virginia,Wild Hare Cider Pub,75 S. 3rd St.,Warrenton,VA,703-402-7956,wildharecider.com,,,,38.7110806,-77.79503147
Northern Virginia,Wilderness Run Vineyards,11109 Plank Rd.,Spotsylvania,VA,540-847-0199,wildernessrunvineyards.com,,,,38.3272111,-77.7190155
Northern Virginia,Williams Gap Vineyard,35521 Sexton Farm Ln.,Round Hill,VA,540-440-1933,williamsgapvineyard.com,,,,39.1489063,-77.78176518
Northern Virginia,Willowcroft Farm Vineyards,38906 Mt. Gilead Rd.,Leesburg,VA,703-777-8161,willowcroftwine.com,,,,39.071419,-77.658264
Northern Virginia,Zephaniah Farm Vineyard,19381 Dunlop Mill Rd.,Leesburg,VA,703-431-1994,zephwine.com,,,,39.081814,-77.622678
